H1 CPF  1  HTS 2022 12 24 12  8581 larets           NONE
H2  0304206 5557    27944 2022 12 24  0  0  0 2022 12 29  0  0  0   180 1 1  0 0 0
H5  0.0560 
H9 
10 0 59941  69480.00000  0    1891697.616   -4255210.416    5301888.896
10 0 59941  69660.00000  0    1923481.346   -5224769.823    4341060.132
10 0 59941  69840.00000  0    1862344.122   -6003889.748    3221168.246
10 0 59941  70020.00000  0    1715931.267   -6561964.544    1983283.213
10 0 59941  70200.00000  0    1495693.604   -6876737.975     672781.478
10 0 59941  70380.00000  0    1216237.534   -6935217.775    -662341.620
10 0 59941  70560.00000  0     894531.435   -6734217.015   -1973271.478
10 0 59941  70740.00000  0     549011.784   -6280478.406   -3212198.986
10 0 59941  70920.00000  0     198644.437   -5590392.594   -4334079.064
10 0 59941  71100.00000  0    -138013.216   -4689336.926   -5298258.113
10 0 59941  71280.00000  0    -443705.441   -3610674.280   -6069905.892
10 0 59941  71460.00000  0    -703283.648   -2394469.665   -6621211.186
10 0 59941  71640.00000  0    -904391.703   -1085983.156   -6932313.687
10 0 59941  71820.00000  0   -1038007.748     265999.851   -6991959.344
10 0 59941  72000.00000  0   -1098824.636    1610947.597   -6797874.110
10 0 59941  72180.00000  0   -1085458.197    2898418.081   -6356854.391
10 0 59941  72360.00000  0   -1000477.503    4079908.601   -5684575.660
10 0 59941  72540.00000  0    -850253.953    5110671.903   -4805110.652
10 0 59941  72720.00000  0    -644631.897    5951438.223   -3750151.997
10 0 59941  72900.00000  0    -396429.979    6569975.560   -2557941.918
10 0 59941  73080.00000  0    -120788.506    6942413.667   -1271931.520
10 0 59941  73260.00000  0     165609.639    7054262.655      60795.069
10 0 59941  73440.00000  0     445409.632    6901060.427    1391276.162
10 0 59941  73620.00000  0     701500.196    6488599.718    2670533.817
10 0 59941  73800.00000  0     917918.357    5832712.060    3851446.776
10 0 59941  73980.00000  0    1080699.193    4958629.157    4890546.192
10 0 59941  74160.00000  0    1178626.482    3899948.188    5749662.396
10 0 59941  74340.00000  0    1203840.148    2697255.648    6397331.069
10 0 59941  74520.00000  0    1152277.983    1396503.472    6809923.640
10 0 59941  74700.00000  0    1023929.549      47199.514    6972474.781
10 0 59941  74880.00000  0     822895.871   -1299506.434    6879186.365
10 0 59941  75060.00000  0     557252.261   -2592775.761    6533612.332
10 0 59941  75240.00000  0     238718.248   -3784013.124    5948515.291
10 0 59941  75420.00000  0    -117850.947   -4828704.560    5145394.994
10 0 59941  75600.00000  0    -495128.005   -5688096.200    4153716.283
10 0 59941  75780.00000  0    -874112.916   -6330672.079    3009850.375
10 0 59941  75960.00000  0   -1235036.526   -6733355.133    1755742.255
10 0 59941  76140.00000  0   -1558321.214   -6882373.817     437358.869
10 0 59941  76320.00000  0   -1825555.451   -6773752.251    -897029.227
10 0 59941  76500.00000  0   -2020424.224   -6413390.137   -2198656.485
10 0 59941  76680.00000  0   -2129550.682   -5816738.633   -3420076.001
10 0 59941  76860.00000  0   -2143209.189   -5008092.277   -4516903.536
10 0 59941  77040.00000  0   -2055873.006   -4019538.068   -5449414.850
10 0 59941  77220.00000  0   -1866574.822   -2889630.085   -6183937.327
10 0 59941  77400.00000  0   -1579069.064   -1661856.293   -6694002.512
10 0 59941  77580.00000  0   -1201791.016    -382960.949   -6961230.478
10 0 59941  77760.00000  0    -747619.589     898809.190   -6975933.150
10 0 59941  77940.00000  0    -233449.802    2135478.314   -6737437.995
10 0 59941  78120.00000  0     320412.588    3281089.425   -6254131.481
10 0 59941  78300.00000  0     891022.835    4293386.257   -5543218.788
10 0 59941  78480.00000  0    1453715.722    5135377.103   -4630187.199
10 0 59941  78660.00000  0    1983140.420    5776728.735   -3547976.816
10 0 59941  78840.00000  0    2454375.898    6194931.917   -2335860.738
10 0 59941  79020.00000  0    2844078.667    6376180.323   -1038059.647
10 0 59941  79200.00000  0    3131607.360    6315909.333     297874.175
10 0 59941  79380.00000  0    3300060.268    6018948.376    1622839.213
10 0 59941  79560.00000  0    3337168.619    5499274.526    2888049.628
10 0 59941  79740.00000  0    3235995.643    4779376.231    4046900.747
10 0 59941  79920.00000  0    2995403.286    3889255.468    5056746.882
10 0 59941  80100.00000  0    2620253.102    2865122.907    5880509.347
10 0 59941  80280.00000  0    2121339.344    1747861.845    6488036.311
10 0 59941  80460.00000  0    1515069.742     581345.073    6857183.311
10 0 59941  80640.00000  0     822900.810    -589323.965    6974581.713
10 0 59941  80820.00000  0      70557.158   -1719570.280    6836088.638
10 0 59941  81000.00000  0    -712940.240   -2767055.568    6446911.769
10 0 59941  81180.00000  0   -1496401.736   -3693271.409    5821402.014
10 0 59941  81360.00000  0   -2247706.556   -4464961.010    4982531.162
10 0 59941  81540.00000  0   -2935121.089   -5055333.925    3961074.746
10 0 59941  81720.00000  0   -3528648.547   -5445027.858    2794498.045
10 0 59941  81900.00000  0   -4001337.447   -5622765.610    1525577.252
10 0 59941  82080.00000  0   -4330490.771   -5585680.320     200813.246
10 0 59941  82260.00000  0   -4498719.788   -5339293.001   -1131304.119
10 0 59941  82440.00000  0   -4494786.440   -4897141.636   -2422110.533
10 0 59941  82620.00000  0   -4314187.754   -4280077.968   -3624578.515
10 0 59941  82800.00000  0   -3959455.410   -3515276.589   -4695038.839
10 0 59941  82980.00000  0   -3440165.047   -2635018.627   -5594743.840
10 0 59941  83160.00000  0   -2772663.255   -1675312.885   -6291220.685
10 0 59941  83340.00000  0   -1979531.150    -674420.595   -6759377.612
10 0 59941  83520.00000  0   -1088808.119     328655.129   -6982338.461
10 0 59941  83700.00000  0    -133011.569    1295655.206   -6951994.059
10 0 59941  83880.00000  0     852017.042    2190483.313   -6669278.002
10 0 59941  84060.00000  0    1828415.258    2980523.143   -6144164.084
10 0 59941  84240.00000  0    2757722.629    3637820.216   -5395372.041
10 0 59941  84420.00000  0    3602375.805    4140086.334   -4449777.419
10 0 59941  84600.00000  0    4327229.692    4471495.873   -3341531.442
10 0 59941  84780.00000  0    4901047.747    4623236.239   -2110892.631
10 0 59941  84960.00000  0    5297887.561    4593775.851    -802794.900
10 0 59941  85140.00000  0    5498308.985    4388828.312     534801.544
99
